EUTELSAT QUANTUM        
1 49056U 21069B   25322.10144330  .00000143  00000+0  00000+0 0  9998
2 49056   0.0255  26.4503 0003091 227.8084 247.3820  1.00272234 15814
EUTELSAT KONNECT VHTS   
1 53765U 22110A   25322.14697669  .00000035  00000+0  00000+0 0  9990
2 53765   0.0554 101.3229 0002548 112.2805 259.5019  1.00270299  4711
EUTELSAT HOTBIRD 13F    
1 54048U 22134A   25322.14141904  .00000105  00000+0  00000+0 0  9995
2 54048   0.0526 288.8285 0002272  73.2294 119.2930  1.00272090 11263
EUTELSAT HOTBIRD 13G    
1 54225U 22146A   25322.14141904  .00000105  00000+0  00000+0 0  9995
2 54225   0.0461 241.3619 0002028 293.9793 306.0369  1.00272319  5356
EUTELSAT 10B            
1 54259U 22157A   25322.14697669  .00000086  00000+0  00000+0 0  9996
2 54259   0.0556  99.0537 0000843  32.6166 348.6827  1.00271131 10910
EUTELSAT 36D            
1 59346U 24059A   25322.09910329  .00000173  00000+0  00000+0 0  9993
2 59346   0.0193 297.9351 0000214  69.5553 121.4573  1.00271201  6034
